{
  "type": "FeatureCollection",
  "features": [
    {
      "type": "Feature",
      "properties": {
        "norad_id": 41866,
        "name": "GOES 16",
        "group": "weather",
        "lat": -0.050001896346179554,
        "lon": -38.69386474438717,
        "alt_km": 35779.05793261846,
        "timestamp": "2025-12-15T22:44:28.563350+00:00",
        "meta_object_name": "GOES 16",
        "meta_object_id": "2016-071A",
        "meta_epoch": "2025-12-15T09:07:38.849664",
        "meta_mean_motion": 1.00271768,
        "meta_eccentricity": 0.00030959,
        "meta_inclination": 0.0697,
        "meta_ra_of_asc_node": 103.4618,
        "meta_arg_of_pericenter": 160.3423,
        "meta_mean_anomaly": 212.717,
        "meta_ephemeris_type": 0,
        "meta_classification_type": "U",
        "meta_norad_cat_id": 41866,
        "meta_element_set_no": 999,
        "meta_rev_at_epoch": 3326,
        "meta_bstar": 0,
        "meta_mean_motion_dot": -7e-07,
        "meta_mean_motion_ddot": 0,
        "tle_line1": "1 41866U 16071A   25349.38031076 -.00000070  00000+0  00000+0 0  9997",
        "tle_line2": "2 41866   0.0697 103.4618 0003095 160.3423 212.7170  1.00271768 33264"
      },
      "geometry": {
        "type": "Point",
        "coordinates": [
          -38.69386474438717,
          -0.050001896346179554
        ]
      }
    },
    {
      "type": "Feature",
      "properties": {
        "norad_id": 41882,
        "name": "FENGYUN 4A",
        "group": "weather",
        "lat": 1.7608492503066453,
        "lon": -170.26749551716574,
        "alt_km": 35771.3113143595,
        "timestamp": "2025-12-15T22:44:28.563363+00:00",
        "meta_object_name": "FENGYUN 4A",
        "meta_object_id": "2016-077A",
        "meta_epoch": "2025-12-15T07:07:44.180832",
        "meta_mean_motion": 1.00268624,
        "meta_eccentricity": 0.00046503,
        "meta_inclination": 1.8558,
        "meta_ra_of_asc_node": 82.3675,
        "meta_arg_of_pericenter": 144.9138,
        "meta_mean_anomaly": 87.6651,
        "meta_ephemeris_type": 0,
        "meta_classification_type": "U",
        "meta_norad_cat_id": 41882,
        "meta_element_set_no": 999,
        "meta_rev_at_epoch": 3308,
        "meta_bstar": 0,
        "meta_mean_motion_dot": -3.37e-06,
        "meta_mean_motion_ddot": 0,
        "tle_line1": "1 41882U 16077A   25349.29703913 -.00000337  00000+0  00000+0 0  9993",
        "tle_line2": "2 41882   1.8558  82.3675 0004650 144.9138  87.6651  1.00268624 33084"
      },
      "geometry": {
        "type": "Point",
        "coordinates": [
          -170.26749551716574,
          1.7608492503066453
        ]
      }
    },
    {
      "type": "Feature",
      "properties": {
        "norad_id": 41884,
        "name": "CYGFM05",
        "group": "weather",
        "lat": -34.82361965799015,
        "lon": -69.1820704682679,
        "alt_km": 421.1269309739846,
        "timestamp": "2025-12-15T22:44:28.563375+00:00",
        "meta_object_name": "CYGFM05",
        "meta_object_id": "2016-078A",
        "meta_epoch": "2025-12-15T07:40:02.589888",
        "meta_mean_motion": 15.47738137,
        "meta_eccentricity": 0.00103864,
        "meta_inclination": 34.9605,
        "meta_ra_of_asc_node": 30.2788,
        "meta_arg_of_pericenter": 206.8653,
        "meta_mean_anomaly": 153.1532,
        "meta_ephemeris_type": 0,
        "meta_classification_type": "U",
        "meta_norad_cat_id": 41884,
        "meta_element_set_no": 999,
        "meta_rev_at_epoch": 50016,
        "meta_bstar": 0.00027666083,
        "meta_mean_motion_dot": 0.0001478,
        "meta_mean_motion_ddot": 0,
        "tle_line1": "1 41884U 16078A   25349.31947442  .00014780  00000+0  27666-3 0  9993",
        "tle_line2": "2 41884  34.9605  30.2788 0010386 206.8653 153.1532 15.47738137500168"
      },
      "geometry": {
        "type": "Point",
        "coordinates": [
          -69.1820704682679,
          -34.82361965799015
        ]
      }
    },
    {
      "type": "Feature",
      "properties": {
        "norad_id": 41885,
        "name": "CYGFM04",
        "group": "weather",
        "lat": 2.0015098189759604,
        "lon": 177.98980794732918,
        "alt_km": 410.83204991828643,
        "timestamp": "2025-12-15T22:44:28.563387+00:00",
        "meta_object_name": "CYGFM04",
        "meta_object_id": "2016-078B",
        "meta_epoch": "2025-12-15T08:04:33.091968",
        "meta_mean_motion": 15.50474773,
        "meta_eccentricity": 0.00096399,
        "meta_inclination": 34.9358,
        "meta_ra_of_asc_node": 4.8693,
        "meta_arg_of_pericenter": 232.6972,
        "meta_mean_anomaly": 127.2872,
        "meta_ephemeris_type": 0,
        "meta_classification_type": "U",
        "meta_norad_cat_id": 41885,
        "meta_element_set_no": 999,
        "meta_rev_at_epoch": 50034,
        "meta_bstar": 0.00027270277,
        "meta_mean_motion_dot": 0.00016048,
        "meta_mean_motion_ddot": 0,
        "tle_line1": "1 41885U 16078B   25349.33649412  .00016048  00000+0  27270-3 0  9992",
        "tle_line2": "2 41885  34.9358   4.8693 0009639 232.6972 127.2872 15.50474773500342"
      },
      "geometry": {
        "type": "Point",
        "coordinates": [
          177.98980794732918,
          2.0015098189759604
        ]
      }
    },
    {
      "type": "Feature",
      "properties": {
        "norad_id": 41886,
        "name": "CYGFM02",
        "group": "weather",
        "lat": -14.321689064445058,
        "lon": -159.4101502239391,
        "alt_km": 405.3158830942066,
        "timestamp": "2025-12-15T22:44:28.563398+00:00",
        "meta_object_name": "CYGFM02",
        "meta_object_id": "2016-078C",
        "meta_epoch": "2025-12-15T07:57:51.276672",
        "meta_mean_motion": 15.51862213,
        "meta_eccentricity": 0.00113172,
        "meta_inclination": 34.9445,
        "meta_ra_of_asc_node": 3.1924,
        "meta_arg_of_pericenter": 232.5769,
        "meta_mean_anomaly": 127.3924,
        "meta_ephemeris_type": 0,
        "meta_classification_type": "U",
        "meta_norad_cat_id": 41886,
        "meta_element_set_no": 999,
        "meta_rev_at_epoch": 50047,
        "meta_bstar": 0.00028118878,
        "meta_mean_motion_dot": 0.0001741,
        "meta_mean_motion_ddot": 0,
        "tle_line1": "1 41886U 16078C   25349.33184348  .00017410  00000+0  28119-3 0  9992",
        "tle_line2": "2 41886  34.9445   3.1924 0011317 232.5769 127.3924 15.51862213500472"
      },
      "geometry": {
        "type": "Point",
        "coordinates": [
          -159.4101502239391,
          -14.321689064445058
        ]
      }
    },
    {
      "type": "Feature",
      "properties": {
        "norad_id": 41887,
        "name": "CYGFM01",
        "group": "weather",
        "lat": -23.197160308094716,
        "lon": -9.358714052483098,
        "alt_km": 425.40088620357983,
        "timestamp": "2025-12-15T22:44:28.563410+00:00",
        "meta_object_name": "CYGFM01",
        "meta_object_id": "2016-078D",
        "meta_epoch": "2025-12-15T07:27:14.631264",
        "meta_mean_motion": 15.48320435,
        "meta_eccentricity": 0.00099972,
        "meta_inclination": 34.9436,
        "meta_ra_of_asc_node": 32.6678,
        "meta_arg_of_pericenter": 199.042,
        "meta_mean_anomaly": 160.9928,
        "meta_ephemeris_type": 0,
        "meta_classification_type": "U",
        "meta_norad_cat_id": 41887,
        "meta_element_set_no": 999,
        "meta_rev_at_epoch": 50010,
        "meta_bstar": 0.00027853993,
        "meta_mean_motion_dot": 0.00015187,
        "meta_mean_motion_ddot": 0,
        "tle_line1": "1 41887U 16078D   25349.31058601  .00015187  00000+0  27854-3 0  9997",
        "tle_line2": "2 41887  34.9436  32.6678 0009997 199.0420 160.9928 15.48320435500106"
      },
      "geometry": {
        "type": "Point",
        "coordinates": [
          -9.358714052483098,
          -23.197160308094716
        ]
      }
    },
    {
      "type": "Feature",
      "properties": {
        "norad_id": 41888,
        "name": "CYGFM08",
        "group": "weather",
        "lat": 10.681701725822943,
        "lon": 27.127538871144242,
        "alt_km": 422.42062270380757,
        "timestamp": "2025-12-15T22:44:28.563421+00:00",
        "meta_object_name": "CYGFM08",
        "meta_object_id": "2016-078E",
        "meta_epoch": "2025-12-15T08:44:38.302944",
        "meta_mean_motion": 15.49534048,
        "meta_eccentricity": 0.00117711,
        "meta_inclination": 34.9468,
        "meta_ra_of_asc_node": 15.2782,
        "meta_arg_of_pericenter": 222.3292,
        "meta_mean_anomaly": 137.6522,
        "meta_ephemeris_type": 0,
        "meta_classification_type": "U",
        "meta_norad_cat_id": 41888,
        "meta_element_set_no": 999,
        "meta_rev_at_epoch": 50034,
        "meta_bstar": 0.00028709421,
        "meta_mean_motion_dot": 0.00016356,
        "meta_mean_motion_ddot": 0,
        "tle_line1": "1 41888U 16078E   25349.36433221  .00016356  00000+0  28709-3 0  9997",
        "tle_line2": "2 41888  34.9468  15.2782 0011771 222.3292 137.6522 15.49534048500340"
      },
      "geometry": {
        "type": "Point",
        "coordinates": [
          27.127538871144242,
          10.681701725822943
        ]
      }
    }
  ]
}